COSMOS 1933             
1 18958U 88020A   22191.25344767  .00001034  00000+0  71323-4 0  9999
2 18958  82.5296 118.3349 0013187 104.9955 255.2733 15.04684996848231
SL-3 R/B                
1 19046U 88032B   22191.47893471  .00001980  00000+0  14633-3 0  9996
2 19046  97.3919 189.4120 0036892 158.8774 201.3985 15.03788424850073
SL-16 R/B               
1 19120U 88039B   22191.49973381  .00000011  00000+0  28164-4 0  9996
2 19120  71.0150  17.2592 0023776 235.6399 124.2477 14.19250536768494
COSMOS 1953             
1 19210U 88050A   22191.57455671  .00002047  00000+0  13303-3 0  9994
2 19210  82.5134  38.2956 0015476  63.7130 296.5685 15.07410846835041
SL-8 R/B                
1 19257U 88053B   22191.08622351  .00000114  00000+0  46593-4 0  9996
2 19257  74.0486  56.9644 0021013 211.6390 258.3391 14.37611015784153
COSMOS 1975             
1 19573U 88093A   22191.50096354  .00001596  00000+0  10639-3 0  9992
2 19573  82.5187 354.2759 0015513 112.6887 247.5982 15.06314180816754
SL-14 R/B               
1 19574U 88093B   22191.50178911  .00000250  00000+0  27284-4 0  9994
2 19574  82.5308 215.8038 0022675 135.7324 336.6884 14.83515182802509
SL-16 R/B               
1 19650U 88102B   22191.14225430 -.00000257  00000+0 -10609-3 0  9990
2 19650  71.0005  87.1267 0016513 251.7435 108.1891 14.15834809737413
INTERCOSMOS 24          
1 20261U 89080A   22191.30236279  .00000505  00000+0  14291-3 0  9992
2 20261  82.6012 252.9386 1202493 150.3443 217.1732 12.56408543498527
SL-14 R/B               
1 20262U 89080C   22191.41139134  .00000064  00000+0  14902-4 0  9997
2 20262  82.5948 311.5934 1236404   0.2708 359.8800 12.49081526492986
DELTA 2 R/B(1)          
1 20303U 89085B   22191.45355359  .00009407  00000+0  23901-3 0  9999
2 20303  35.6389 301.6518 0078624  58.9299 301.9119 15.35758013783995
DELTA 1 R/B             
1 20323U 89089B   22191.35917992  .00000165  00000+0  51440-4 0  9993
2 20323  97.0785 229.3764 0072145  23.6041 336.8438 14.48534670701854
ARIANE 40 R/B           
1 20443U 90005H   22191.16761995  .00000126  00000+0  55830-4 0  9999
2 20443  98.4826 258.6630 0009222 255.8155 104.2008 14.38242711700306
DELTA 2 R/B(1)          
1 20453U 90008B   22191.28118453  .00004116  00000+0  21666-3 0  9993
2 20453  35.6221 127.7234 0263851 122.8126 239.8291 14.90066704723315
COSMOS 2058             
1 20465U 90010A   22191.30743326  .00001066  00000+0  85770-4 0  9993
2 20465  82.4886 268.5668 0015347 176.1708 183.9636 14.98938252741050
SL-14 R/B               
1 20466U 90010B   22191.18175260  .00000230  00000+0  26266-4 0  9993
2 20466  82.5030  82.2827 0021215  28.3974 331.8391 14.81557708730173
SL-14 R/B               
1 20511U 90018B   22191.51235028  .00000245  00000+0  29106-4 0  9990
2 20511  82.5222  31.7168 0017779 163.1937 258.2572 14.80210143724502
HST                     
1 20580U 90037B   22191.23776957  .00001833  00000+0  97248-4 0  9993
2 20580  28.4709  17.8215 0002342 282.7590 251.0620 15.10645438569660
SL-16 R/B               
1 20625U 90046B   22191.48424884  .00000183  00000+0  11956-3 0  9997
2 20625  70.9980 227.5792 0014344 186.9007 173.1920 14.14700118659113
COSMOS 2084             
1 20663U 90055A   22191.41653147  .00001265  00000+0  12336-3 0  9993
2 20663  62.7910 172.9285 0119438  52.2431 308.9411 14.92923294735726
SL-6 R/B(2)             
1 20666U 90055D   22191.13638143  .00001456  00000+0  13470-3 0  9996
2 20666  62.7841  88.3169 0130542  74.7173 286.8307 14.93264572737643
SL-8 R/B                
1 20775U 90078B   22191.45391515  .00004059  00000+0  18815-3 0  9996
2 20775  82.9252 323.7601 0550494  15.2116 346.4896 14.40212494613838
SL-8 R/B                
1 21088U 91006B   22191.23469924  .00000059  00000+0  43960-4 0  9998
2 21088  82.9423  85.5276 0022398 180.1091 299.4275 13.77198693579829
OKEAN-3                 
1 21397U 91039A   22191.47383475  .00001062  00000+0  97580-4 0  9991
2 21397  82.5212 180.6396 0017963 162.9722 197.2105 14.93741524664610
COSMOS 2151             
1 21422U 91042A   22191.31794598  .00000730  00000+0  68279-4 0  9993
2 21422  82.5009 285.9665 0012830 233.0163 126.9883 14.92709284663097
SL-14 R/B               
1 21423U 91042B   22191.50566949  .00000220  00000+0  26028-4 0  9992
2 21423  82.4930  33.0320 0016469 315.7733  44.2163 14.79955481655038
ERS-1                   
1 21574U 91050A   22191.45135162  .00000070  00000+0  38176-4 0  9991
2 21574  98.6986 160.5627 0032200 208.2594 151.6846 14.37913253623326
ARIANE 40 R/B           
1 21610U 91050F   22191.17545005  .00000144  00000+0  58023-4 0  9997
2 21610  98.3802 260.2424 0003992 141.6332 218.5142 14.41078071626106
INTERCOSMOS 25          
1 21819U 91086A   22191.52800717  .00001536  00000+0  30192-3 0  9992
2 21819  82.5894  34.8149 1514113 106.6838 270.5475 12.05827530335011
SL-8 R/B                
1 21876U 92008B   22191.53206823  .00000121  00000+0  10974-3 0  9994
2 21876  82.9264 182.6704 0033272 271.6537 205.4290 13.75708661525416
SL-8 R/B                
1 21938U 92020B   22191.17424163  .00000013  00000+0 -25655-5 0  9991
2 21938  82.9292  67.7277 0030511  73.9395  38.8240 13.75305261517134
COSMOS 2219             
1 22219U 92076A   22191.52142699  .00000022  00000+0  36269-4 0  9996
2 22219  71.0622 294.5122 0016048  82.8254 277.4692 14.13704360529236
SL-16 R/B               
1 22220U 92076B   22191.24845980  .00000244  00000+0  14665-3 0  9991
2 22220  71.0005 126.8738 0013915 327.0991 195.9228 14.16500516532272
COSMOS 2221             
1 22236U 92080A   22191.25481554  .00000780  00000+0  81164-4 0  9991
2 22236  82.5084 112.1388 0016286 348.2420  11.8414 14.88520812581220
SL-16 R/B               
1 22285U 92093B   22191.49621120 -.00000286  00000+0 -12311-3 0  9990
2 22285  71.0223 292.6547 0005097 215.1055 144.9733 14.15090423523821
COSMOS 2228             
1 22286U 92094A   22191.15995950  .00000809  00000+0  83416-4 0  9994
2 22286  82.5195  69.3574 0022378  99.2004 261.1746 14.88778726576409
SL-16 R/B               
1 22566U 93016B   22191.28442579 -.00000059  00000+0 -56501-5 0  9993
2 22566  71.0069 145.4596 0011358 210.4859 149.5605 14.15000852512821
COSMOS 2242             
1 22626U 93024A   22191.21493401  .00000851  00000+0  88397-4 0  9997
2 22626  82.5220  97.7581 0020318  99.2855 261.0661 14.88605198580799
SL-16 R/B               
1 22803U 93059B   22191.49981315  .00000044  00000+0  45612-4 0  9995
2 22803  70.9914 312.2375 0015029  88.8773 271.4072 14.16869029489963
ARIANE 40 R/B           
1 22830U 93061H   22191.16527274  .00000094  00000+0  52017-4 0  9994
2 22830  98.6624 253.9169 0009711 272.8075  87.1996 14.31565707502518
COSMOS 2278             
1 23087U 94023A   22191.18003040  .00000041  00000+0  46609-4 0  9992
2 23087  71.0556  94.2633 0011128 273.1707  86.8142 14.13878568455580
SL-16 R/B               
1 23088U 94023B   22191.51051270  .00000262  00000+0  16077-3 0  9998
2 23088  71.0001   0.4705 0003679 202.9781 157.1177 14.14712677456815
SL-16 R/B               
1 23343U 94074B   22191.15067774  .00000212  00000+0  37206-4 0  9997
2 23343  97.8914 243.5934 0005620 236.5533 182.6343 14.77050665489510
SL-16 R/B               
1 23405U 94077B   22191.51547169  .00000285  00000+0  17126-3 0  9998
2 23405  70.9834 287.0030 0002111 345.7065  14.3998 14.15261709426880
ERS-2                   
1 23560U 95021A   22191.37467052  .00004451  00000+0  17159-3 0  9991
2 23560  98.5036  99.9399 0004520 109.0177 251.1549 15.26971048456817
ARIANE 40+ R/B          
1 23561U 95021B   22191.15807719  .00000151  00000+0  64564-4 0  9992
2 23561  98.6218 248.5550 0007183 169.3064 249.3476 14.38161763426759
SL-16 R/B               
1 23705U 95058B   22191.24049944  .00000282  00000+0  16931-3 0  9999
2 23705  71.0226 109.4748 0012655 350.2523   9.8352 14.15175471378471
SL-16 R/B               
1 24298U 96051B   22191.26001651  .00000022  00000+0  38589-4 0  9992
2 24298  70.8200 122.6838 0017367 305.1769  54.7724 14.12415834332650
ORBVIEW 2 (SEASTAR)     
1 24883U 97037A   22191.32722426  .00000147  00000+0  69086-4 0  9998
2 24883  98.6833 314.7709 0003171  60.9164 299.2337 14.33752621316585
SL-16 R/B               
1 25400U 98043G   22191.44882271  .00000004  00000+0  20373-4 0  9998
2 25400  98.6731 127.3202 0008986 306.5748  53.4604 14.25519367248298
SL-16 R/B               
1 25407U 98045B   22191.19245588  .00000161  00000+0  10589-3 0  9994
2 25407  71.0116 115.5679 0009646 266.6812  93.3208 14.15863020237621
ISS (ZARYA)             
1 25544U 98067A   22191.47997990  .00006149  00000+0  11606-3 0  9995
2 25544  51.6429 221.2260 0004660 355.6680 109.6498 15.49890405348796
CZ-4B R/B               
1 25732U 99025C   22191.37114113  .00000023  00000+0  32831-4 0  9995
2 25732  98.8525 232.6474 0036625 220.7358 149.6204 14.17734578198501
OKEAN-O                 
1 25860U 99039A   22191.35398019  .00000286  00000+0  48148-4 0  9998
2 25860  98.1372 231.4129 0001263  68.6843 291.4502 14.76968769236638
SL-16 R/B               
1 25861U 99039B   22191.54914113  .00000271  00000+0  44242-4 0  9994
2 25861  98.1774 218.9300 0014218 257.5916 102.3703 14.78846724238914
DELTA 2 R/B             
1 25876U 99041E   22191.50791934  .00000511  00000+0  12727-3 0  9992
2 25876  51.7620 216.5443 0529886  21.1456 341.0515 14.05061329174465
HELIOS 1B               
1 25977U 99064A   22191.48233304  .00000329  00000+0  47792-4 0  9996
2 25977  98.3209  26.6223 0002554  84.5254 275.6250 14.82807295486694
TERRA                   
1 25994U 99068A   22191.47738520  .00000207  00000+0  55871-4 0  9990
2 25994  98.1361 262.8691 0001352 100.3318 315.5184 14.57154669199857
SL-16 R/B               
1 26070U 00006B   22191.56761858 -.00000115  00000+0 -34401-4 0  9996
2 26070  71.0030  30.6422 0014792  53.4603 306.7879 14.15495002159184
